
# Worst residual: 73.25 km
# MJD 61015.000000 (2025 Dec  6  0:00)
ZTF107N = A11uqfJ = ZTF108U
1 79864U 25000ZYQ 25340.49919926  .00000000  00000-0  00000-0 0 29075
2 79864 040.9465 040.1425 7360379 224.4635 014.1678 00.84908564    02

# Worst residual: 111.04 km
# MJD 61016.000000 (2025 Dec  7  0:00)
ZTF107N = A11uqfJ = ZTF108U
1 79864U 25000ZYQ 25341.49919926  .00000000  00000-0  00000-0 0 29076
2 79864 040.9298 040.0786 7366294 224.9938 317.8980 00.84768869    09

# Worst residual: 86.64 km
# MJD 61017.000000 (2025 Dec  8  0:00)
ZTF107N = A11uqfJ = ZTF108U
1 79864U 25000ZYQ 25342.49919926  .00000000  00000-0  00000-0 0 29077
2 79864 040.9006 039.9904 7364153 225.4898 261.9455 00.84584030    00

# Worst residual: 42.45 km
# MJD 61018.000000 (2025 Dec  9  0:00)
ZTF107N = A11uqfJ = ZTF108U
1 79864U 25000ZYQ 25343.49919926  .00000000  00000-0  00000-0 0 29078
2 79864 040.8831 039.9295 7356838 226.0271 206.0424 00.84483952    08

# Worst residual: 48.65 km
# MJD 61019.000000 (2025 Dec 10  0:00)
ZTF107N = A11uqfJ = ZTF108U
1 79864U 25000ZYQ 25344.49919926  .00000000  00000-0  00000-0 0 29079
2 79864 040.8583 039.8473 7361557 226.6234 150.1563 00.84510561    08

# Worst residual: 126.60 km
# MJD 61020.000000 (2025 Dec 11  0:00)
ZTF107N = A11uqfJ = ZTF108U
1 79864U 25000ZYQ 25345.49919926  .00000000  00000-0  00000-0 0 29070
2 79864 040.8375 039.7647 7376738 227.1250 094.3504 00.84706505    09

# Worst residual: 107.68 km
# MJD 61021.000000 (2025 Dec 12  0:00)
ZTF107N = A11uqfJ = ZTF108U
1 79864U 25000ZYQ 25346.49919926  .00000000  00000-0  00000-0 0 29071
2 79864 040.8124 039.6738 7376178 227.6767 038.2760 00.84920487    05

# Worst residual: 119.14 km
# MJD 61022.000000 (2025 Dec 13  0:00)
ZTF107N = A11uqfJ = ZTF108U
1 79864U 25000ZYQ 25347.49919926  .00000000  00000-0  00000-0 0 29072
2 79864 040.7703 039.5673 7378924 228.3034 341.9454 00.84892669    04

# Worst residual: 124.45 km
# MJD 61023.000000 (2025 Dec 14  0:00)
ZTF107N = A11uqfJ = ZTF108U
1 79864U 25000ZYQ 25348.49919926  .00000000  00000-0  00000-0 0 29073
2 79864 040.7278 039.4629 7380311 228.8330 285.8584 00.84672391    06

# Worst residual: 46.46 km
# MJD 61024.000000 (2025 Dec 15  0:00)
ZTF107N = A11uqfJ = ZTF108U
1 79864U 25000ZYQ 25349.49919926  .00000000  00000-0  00000-0 0 29074
2 79864 040.6891 039.3663 7367876 229.3788 229.9206 00.84482826    09

# Worst residual: 48.31 km
# MJD 61025.000000 (2025 Dec 16  0:00)
ZTF107N = A11uqfJ = ZTF108U
1 79864U 25000ZYQ 25350.49919926  .00000000  00000-0  00000-0 0 29076
2 79864 040.6434 039.2460 7367763 230.0154 174.0051 00.84472763    04

# Worst residual: 136.99 km
# MJD 61026.000000 (2025 Dec 17  0:00)
ZTF107N = A11uqfJ = ZTF108U
1 79864U 25000ZYQ 25351.49919926  .00000000  00000-0  00000-0 0 29077
2 79864 040.6065 039.1307 7377913 230.6032 118.1229 00.84619752    09

# Worst residual: 105.26 km
# MJD 61027.000000 (2025 Dec 18  0:00)
ZTF107N = A11uqfJ = ZTF108U
1 79864U 25000ZYQ 25352.49919926  .00000000  00000-0  00000-0 0 29078
2 79864 040.5687 039.0042 7380566 231.1378 062.1870 00.84842839    04

# Worst residual: 92.70 km
# MJD 61028.000000 (2025 Dec 19  0:00)
ZTF107N = A11uqfJ = ZTF108U
1 79864U 25000ZYQ 25353.49919926  .00000000  00000-0  00000-0 0 29079
2 79864 040.5169 038.8576 7377075 231.7772 005.9265 00.84937822    03

# Worst residual: 121.55 km
# MJD 61029.000000 (2025 Dec 20  0:00)
ZTF107N = A11uqfJ = ZTF108U
1 79864U 25000ZYQ 25354.49919926  .00000000  00000-0  00000-0 0 29070
2 79864 040.4494 038.6926 7376533 232.3937 309.7248 00.84755791    07

# Worst residual: 72.98 km
# MJD 61030.000000 (2025 Dec 21  0:00)
ZTF107N = A11uqfJ = ZTF108U
1 79864U 25000ZYQ 25355.49919926  .00000000  00000-0  00000-0 0 29071
2 79864 040.3963 038.5674 7368043 232.9296 253.7991 00.84550502    03

# Worst residual: 49.63 km
# MJD 61031.000000 (2025 Dec 22  0:00)
ZTF107N = A11uqfJ = ZTF108U
1 79864U 25000ZYQ 25356.49919926  .00000000  00000-0  00000-0 0 29072
2 79864 040.3424 038.4226 7357447 233.5690 197.8649 00.84466458    02

# Worst residual: 68.27 km
# MJD 61032.000000 (2025 Dec 23  0:00)
ZTF107N = A11uqfJ = ZTF108U
1 79864U 25000ZYQ 25357.49919926  .00000000  00000-0  00000-0 0 29073
2 79864 040.2898 038.2671 7361227 234.2235 141.9505 00.84551449    08

# Worst residual: 133.17 km
# MJD 61033.000000 (2025 Dec 24  0:00)
ZTF107N = A11uqfJ = ZTF108U
1 79864U 25000ZYQ 25358.49919926  .00000000  00000-0  00000-0 0 29074
2 79864 040.2498 038.1153 7365421 234.7736 086.1059 00.84762791    07

# Worst residual: 84.06 km
# MJD 61034.000000 (2025 Dec 25  0:00)
ZTF107N = A11uqfJ = ZTF108U
1 79864U 25000ZYQ 25359.49919926  .00000000  00000-0  00000-0 0 29075
2 79864 040.1925 037.9285 7357940 235.4129 029.9627 00.84941629    00

# Worst residual: 133.19 km
# MJD 61035.000000 (2025 Dec 26  0:00)
ZTF107N = A11uqfJ = ZTF108U
1 79864U 25000ZYQ 25360.49919926  .00000000  00000-0  00000-0 0 29077
2 79864 040.1147 037.7177 7354342 236.1024 333.6463 00.84848039    03

# Worst residual: 110.68 km
# MJD 61036.000000 (2025 Dec 27  0:00)
ZTF107N = A11uqfJ = ZTF108U
1 79864U 25000ZYQ 25361.49919926  .00000000  00000-0  00000-0 0 29078
2 79864 040.0532 037.5639 7345972 236.6688 277.6402 00.84621071    06
